{
    "links": {
        "self": "http://www.neowsapp.com/rest/v1/neo/3670144?api_key=iIulBulltgU6a56xZRHN4H3l9WmuAYTsLGpBGhQ2"
    },
    "id": "3670144",
    "neo_reference_id": "3670144",
    "name": "(2014 HQ178)",
    "designation": "2014 HQ178",
    "nasa_jpl_url": "http://ssd.jpl.nasa.gov/sbdb.cgi?sstr=3670144",
    "absolute_magnitude_h": 22.6,
    "estimated_diameter": {
        "kilometers": {
            "estimated_diameter_min": 0.0802703167,
            "estimated_diameter_max": 0.1794898848
        },
        "meters": {
            "estimated_diameter_min": 80.2703167283,
            "estimated_diameter_max": 179.4898847799
        },
        "miles": {
            "estimated_diameter_min": 0.049877647,
            "estimated_diameter_max": 0.1115298092
        },
        "feet": {
            "estimated_diameter_min": 263.3540659348,
            "estimated_diameter_max": 588.8775935812
        }
    },
    "is_potentially_hazardous_asteroid": false,
    "close_approach_data": [
        {
            "close_approach_date": "2014-02-25",
            "close_approach_date_full": "2014-Feb-25 18:57",
            "epoch_date_close_approach": 1393354620000,
            "relative_velocity": {
                "kilometers_per_second": "4.0760753473",
                "kilometers_per_hour": "14673.8712502725",
                "miles_per_hour": "9117.7729443707"
            },
            "miss_distance": {
                "astronomical": "0.1092615159",
                "lunar": "42.5027296851",
                "kilometers": "16345290.051611133",
                "miles": "10156492.2752663154"
            },
            "orbiting_body": "Earth"
        },
        {
            "close_approach_date": "2018-12-09",
            "close_approach_date_full": "2018-Dec-09 19:43",
            "epoch_date_close_approach": 1544384580000,
            "relative_velocity": {
                "kilometers_per_second": "9.5919585171",
                "kilometers_per_hour": "34531.050661515",
                "miles_per_hour": "21456.252006873"
            },
            "miss_distance": {
                "astronomical": "0.030198835",
                "lunar": "11.747346815",
                "kilometers": "4517681.39248145",
                "miles": "2807157.04768601"
            },
            "orbiting_body": "Mars"
        }
    ],
    "orbital_data": {
        "orbit_id": "5",
        "orbit_determination_date": "2017-04-06 08:41:14",
        "first_observation_date": "2014-04-29",
        "last_observation_date": "2014-05-06",
        "data_arc_in_days": 7,
        "observations_used": 18,
        "orbit_uncertainty": "8",
        "minimum_orbit_intersection": ".108303",
        "jupiter_tisserand_invariant": "4.616",
        "epoch_osculation": "2456778.5",
        "eccentricity": ".279522370561322",
        "semi_major_axis": "1.440991986614317",
        "inclination": "5.881521954197766",
        "ascending_node_longitude": "31.66131842508946",
        "orbital_period": "631.8162265328402",
        "perihelion_distance": "1.038202490556014",
        "perihelion_argument": "102.0395973051631",
        "aphelion_distance": "1.843781482672619",
        "perihelion_time": "2456692.875609941408",
        "mean_anomaly": "48.78757323193079",
        "mean_motion": ".5697859359762552",
        "equinox": "J2000",
        "orbit_class": {
            "orbit_class_type": "AMO",
            "orbit_class_description": "Near-Earth asteroid orbits similar to that of 1221 Amor",
            "orbit_class_range": "1.017 AU < q (perihelion) < 1.3 AU"
        }
    },
    "is_sentry_object": false
}